{
  "type": "FeatureCollection",
  "features": [
    {
      "type": "Feature",
      "properties": {
        "norad_id": 66604,
        "name": "STARLINK-35977",
        "group": "last-30-days",
        "lat": 23.402376569497132,
        "lon": 165.27241953355812,
        "alt_km": 441.33130944749337,
        "timestamp": "2025-12-22T05:49:02.184168+00:00",
        "meta_object_name": "STARLINK-35977",
        "meta_object_id": "2025-270S",
        "meta_epoch": "2025-12-21T18:46:21.354240",
        "meta_mean_motion": 15.40738163,
        "meta_eccentricity": 0.0003052,
        "meta_inclination": 42.9996,
        "meta_ra_of_asc_node": 140.251,
        "meta_arg_of_pericenter": 264.9262,
        "meta_mean_anomaly": 95.1246,
        "meta_ephemeris_type": 0,
        "meta_classification_type": "U",
        "meta_norad_cat_id": 66604,
        "meta_element_set_no": 999,
        "meta_rev_at_epoch": 574,
        "meta_bstar": 0.0014479,
        "meta_mean_motion_dot": 0.00060744,
        "meta_mean_motion_ddot": 0,
        "tle_line1": "1 66604U 25270S   25355.78219160  .00060744  00000+0  14479-2 0  9999",
        "tle_line2": "2 66604  42.9996 140.2510 0003052 264.9262  95.1246 15.40738163  5748"
      },
      "geometry": {
        "type": "Point",
        "coordinates": [
          165.27241953355812,
          23.402376569497132
        ]
      }
    },
    {
      "type": "Feature",
      "properties": {
        "norad_id": 66605,
        "name": "STARLINK-36052",
        "group": "last-30-days",
        "lat": 39.781264942567134,
        "lon": -105.89570873803135,
        "alt_km": 438.95944412782956,
        "timestamp": "2025-12-22T05:49:02.184178+00:00",
        "meta_object_name": "STARLINK-36052",
        "meta_object_id": "2025-270T",
        "meta_epoch": "2025-12-21T20:00:01.999008",
        "meta_mean_motion": 15.40665141,
        "meta_eccentricity": 0.0002025,
        "meta_inclination": 43.0002,
        "meta_ra_of_asc_node": 139.778,
        "meta_arg_of_pericenter": 286.6687,
        "meta_mean_anomaly": 72.0972,
        "meta_ephemeris_type": 0,
        "meta_classification_type": "U",
        "meta_norad_cat_id": 66605,
        "meta_element_set_no": 999,
        "meta_rev_at_epoch": 586,
        "meta_bstar": 0.0023079,
        "meta_mean_motion_dot": 0.0009723,
        "meta_mean_motion_ddot": 0,
        "tle_line1": "1 66605U 25270T   25355.83335647  .00097230  00000+0  23079-2 0  9991",
        "tle_line2": "2 66605  43.0002 139.7780 0002025 286.6687  72.0972 15.40665141  5860"
      },
      "geometry": {
        "type": "Point",
        "coordinates": [
          -105.89570873803135,
          39.781264942567134
        ]
      }
    },
    {
      "type": "Feature",
      "properties": {
        "norad_id": 66606,
        "name": "STARLINK-36063",
        "group": "last-30-days",
        "lat": -40.94669666857402,
        "lon": 25.677421578003997,
        "alt_km": 416.48269265057843,
        "timestamp": "2025-12-22T05:49:02.184188+00:00",
        "meta_object_name": "STARLINK-36063",
        "meta_object_id": "2025-270U",
        "meta_epoch": "2025-12-19T11:48:20.511648",
        "meta_mean_motion": 15.50662232,
        "meta_eccentricity": 0.0001816,
        "meta_inclination": 42.9987,
        "meta_ra_of_asc_node": 153.1595,
        "meta_arg_of_pericenter": 282.0515,
        "meta_mean_anomaly": 78.0141,
        "meta_ephemeris_type": 0,
        "meta_classification_type": "U",
        "meta_norad_cat_id": 66606,
        "meta_element_set_no": 999,
        "meta_rev_at_epoch": 539,
        "meta_bstar": 0.00079676,
        "meta_mean_motion_dot": 0.0004682,
        "meta_mean_motion_ddot": 0,
        "tle_line1": "1 66606U 25270U   25353.49190407  .00046820  00000+0  79676-3 0  9999",
        "tle_line2": "2 66606  42.9987 153.1595 0001816 282.0515  78.0141 15.50662232  5393"
      },
      "geometry": {
        "type": "Point",
        "coordinates": [
          25.677421578003997,
          -40.94669666857402
        ]
      }
    },
    {
      "type": "Feature",
      "properties": {
        "norad_id": 66607,
        "name": "STARLINK-35993",
        "group": "last-30-days",
        "lat": 35.03749465325205,
        "lon": -91.41402885447145,
        "alt_km": 439.43458327304415,
        "timestamp": "2025-12-22T05:49:02.184201+00:00",
        "meta_object_name": "STARLINK-35993",
        "meta_object_id": "2025-270V",
        "meta_epoch": "2025-12-21T20:00:01.999008",
        "meta_mean_motion": 15.40690254,
        "meta_eccentricity": 0.0001894,
        "meta_inclination": 43,
        "meta_ra_of_asc_node": 139.7477,
        "meta_arg_of_pericenter": 279.5106,
        "meta_mean_anomaly": 91.6484,
        "meta_ephemeris_type": 0,
        "meta_classification_type": "U",
        "meta_norad_cat_id": 66607,
        "meta_element_set_no": 999,
        "meta_rev_at_epoch": 576,
        "meta_bstar": 0.0025964,
        "meta_mean_motion_dot": 0.00109691,
        "meta_mean_motion_ddot": 0,
        "tle_line1": "1 66607U 25270V   25355.83335647  .00109691  00000+0  25964-2 0  9993",
        "tle_line2": "2 66607  43.0000 139.7477 0001894 279.5106  91.6484 15.40690254  5760"
      },
      "geometry": {
        "type": "Point",
        "coordinates": [
          -91.41402885447145,
          35.03749465325205
        ]
      }
    },
    {
      "type": "Feature",
      "properties": {
        "norad_id": 66608,
        "name": "STARLINK-36036",
        "group": "last-30-days",
        "lat": -41.34108101012436,
        "lon": 27.821351631071302,
        "alt_km": 416.3758768259486,
        "timestamp": "2025-12-22T05:49:02.184211+00:00",
        "meta_object_name": "STARLINK-36036",
        "meta_object_id": "2025-270W",
        "meta_epoch": "2025-12-19T11:47:53.026080",
        "meta_mean_motion": 15.50612484,
        "meta_eccentricity": 0.0001538,
        "meta_inclination": 42.999,
        "meta_ra_of_asc_node": 153.1562,
        "meta_arg_of_pericenter": 266.4602,
        "meta_mean_anomaly": 93.6082,
        "meta_ephemeris_type": 0,
        "meta_classification_type": "U",
        "meta_norad_cat_id": 66608,
        "meta_element_set_no": 999,
        "meta_rev_at_epoch": 523,
        "meta_bstar": 0.0010303,
        "meta_mean_motion_dot": 0.00060643,
        "meta_mean_motion_ddot": 0,
        "tle_line1": "1 66608U 25270W   25353.49158595  .00060643  00000+0  10303-2 0  9993",
        "tle_line2": "2 66608  42.9990 153.1562 0001538 266.4602  93.6082 15.50612484  5231"
      },
      "geometry": {
        "type": "Point",
        "coordinates": [
          27.821351631071302,
          -41.34108101012436
        ]
      }
    },
    {
      "type": "Feature",
      "properties": {
        "norad_id": 66609,
        "name": "STARLINK-36034",
        "group": "last-30-days",
        "lat": -41.15248948262994,
        "lon": 26.76609286338737,
        "alt_km": 419.6709942103071,
        "timestamp": "2025-12-22T05:49:02.184221+00:00",
        "meta_object_name": "STARLINK-36034",
        "meta_object_id": "2025-270X",
        "meta_epoch": "2025-12-20T17:09:50.095296",
        "meta_mean_motion": 15.50362019,
        "meta_eccentricity": 0.00048554,
        "meta_inclination": 42.9992,
        "meta_ra_of_asc_node": 145.9955,
        "meta_arg_of_pericenter": 131.0653,
        "meta_mean_anomaly": 229.0628,
        "meta_ephemeris_type": 0,
        "meta_classification_type": "U",
        "meta_norad_cat_id": 66609,
        "meta_element_set_no": 999,
        "meta_rev_at_epoch": 542,
        "meta_bstar": 0.0011127835,
        "meta_mean_motion_dot": 0.00065002,
        "meta_mean_motion_ddot": 0,
        "tle_line1": "1 66609U 25270X   25354.71516314  .00065002  00000+0  11128-2 0  9997",
        "tle_line2": "2 66609  42.9992 145.9955 0004855 131.0653 229.0628 15.50362019  5425"
      },
      "geometry": {
        "type": "Point",
        "coordinates": [
          26.76609286338737,
          -41.15248948262994
        ]
      }
    },
    {
      "type": "Feature",
      "properties": {
        "norad_id": 66610,
        "name": "STARLINK-35680",
        "group": "last-30-days",
        "lat": 21.46697705398088,
        "lon": -67.63260712088969,
        "alt_km": 441.7681276766816,
        "timestamp": "2025-12-22T05:49:02.184231+00:00",
        "meta_object_name": "STARLINK-35680",
        "meta_object_id": "2025-270Y",
        "meta_epoch": "2025-12-21T20:00:01.999008",
        "meta_mean_motion": 15.40679611,
        "meta_eccentricity": 0.0002202,
        "meta_inclination": 42.9999,
        "meta_ra_of_asc_node": 139.6863,
        "meta_arg_of_pericenter": 295.9279,
        "meta_mean_anomaly": 100.1268,
        "meta_ephemeris_type": 0,
        "meta_classification_type": "U",
        "meta_norad_cat_id": 66610,
        "meta_element_set_no": 999,
        "meta_rev_at_epoch": 596,
        "meta_bstar": 0.0024889,
        "meta_mean_motion_dot": 0.00105036,
        "meta_mean_motion_ddot": 0,
        "tle_line1": "1 66610U 25270Y   25355.83335647  .00105036  00000+0  24889-2 0  9991",
        "tle_line2": "2 66610  42.9999 139.6863 0002202 295.9279 100.1268 15.40679611  5966"
      },
      "geometry": {
        "type": "Point",
        "coordinates": [
          -67.63260712088969,
          21.46697705398088
        ]
      }
    }
  ]
}